[{"OBJECT_NAME":"STARLINK-2377","OBJECT_ID":"2021-018L","EPOCH":"2025-09-22T05:45:37.380672","MEAN_MOTION":15.0641218,"ECCENTRICITY":0.00012108,"INCLINATION":53.0537,"RA_OF_ASC_NODE":292.8202,"ARG_OF_PERICENTER":81.6226,"MEAN_ANOMALY":278.4901,"EPHEMERIS_TYPE":0,"CLASSIFICATION_TYPE":"U","NORAD_CAT_ID":47797,"ELEMENT_SET_NO":999,"REV_AT_EPOCH":25113,"BSTAR":0.00034518118,"MEAN_MOTION_DOT":4.865e-5,"MEAN_MOTION_DDOT":0},{"OBJECT_NAME":"STARLINK-2379","OBJECT_ID":"2021-018M","EPOCH":"2025-09-22T06:44:39.801408","MEAN_MOTION":15.06401659,"ECCENTRICITY":0.00013177,"INCLINATION":53.0531,"RA_OF_ASC_NODE":267.6355,"ARG_OF_PERICENTER":95.1897,"MEAN_ANOMALY":264.9242,"EPHEMERIS_TYPE":0,"CLASSIFICATION_TYPE":"U","NORAD_CAT_ID":47798,"ELEMENT_SET_NO":999,"REV_AT_EPOCH":25149,"BSTAR":6.5466377e-5,"MEAN_MOTION_DOT":6.94e-6,"MEAN_MOTION_DDOT":0},{"OBJECT_NAME":"STARLINK-2380","OBJECT_ID":"2021-018N","EPOCH":"2025-09-22T06:39:21.405312","MEAN_MOTION":15.06408014,"ECCENTRICITY":0.00012949,"INCLINATION":53.0544,"RA_OF_ASC_NODE":267.6494,"ARG_OF_PERICENTER":86.9575,"MEAN_ANOMALY":273.1562,"EPHEMERIS_TYPE":0,"CLASSIFICATION_TYPE":"U","NORAD_CAT_ID":47799,"ELEMENT_SET_NO":999,"REV_AT_EPOCH":25148,"BSTAR":0.00014264935,"MEAN_MOTION_DOT":1.844e-5,"MEAN_MOTION_DDOT":0},{"OBJECT_NAME":"STARLINK-2381","OBJECT_ID":"2021-018P","EPOCH":"2025-09-22T07:11:12.354720","MEAN_MOTION":15.063999,"ECCENTRICITY":0.00012922,"INCLINATION":53.0538,"RA_OF_ASC_NODE":267.5553,"ARG_OF_PERICENTER":85.9741,"MEAN_ANOMALY":274.1396,"EPHEMERIS_TYPE":0,"CLASSIFICATION_TYPE":"U","NORAD_CAT_ID":47800,"ELEMENT_SET_NO":999,"REV_AT_EPOCH":25149,"BSTAR":1.0631869e-5,"MEAN_MOTION_DOT":-1.23e-6,"MEAN_MOTION_DDOT":0},{"OBJECT_NAME":"STARLINK-2383","OBJECT_ID":"2021-018R","EPOCH":"2025-09-22T05:56:13.428960","MEAN_MOTION":15.0640585,"ECCENTRICITY":0.00012808,"INCLINATION":53.0542,"RA_OF_ASC_NODE":292.786,"ARG_OF_PERICENTER":89.0384,"MEAN_ANOMALY":271.0751,"EPHEMERIS_TYPE":0,"CLASSIFICATION_TYPE":"U","NORAD_CAT_ID":47802,"ELEMENT_SET_NO":999,"REV_AT_EPOCH":25114,"BSTAR":0.000138083,"MEAN_MOTION_DOT":1.776e-5,"MEAN_MOTION_DDOT":0},{"OBJECT_NAME":"STARLINK-2385","OBJECT_ID":"2021-018T","EPOCH":"2025-09-22T06:12:48.820896","MEAN_MOTION":15.06408181,"ECCENTRICITY":0.00014366,"INCLINATION":53.0537,"RA_OF_ASC_NODE":267.7323,"ARG_OF_PERICENTER":103.8493,"MEAN_ANOMALY":256.2656,"EPHEMERIS_TYPE":0,"CLASSIFICATION_TYPE":"U","NORAD_CAT_ID":47804,"ELEMENT_SET_NO":999,"REV_AT_EPOCH":25148,"BSTAR":8.40758e-5,"MEAN_MOTION_DOT":9.71e-6,"MEAN_MOTION_DDOT":0},{"OBJECT_NAME":"STARLINK-2386","OBJECT_ID":"2021-018U","EPOCH":"2025-09-22T07:00:38.001600","MEAN_MOTION":15.06413315,"ECCENTRICITY":0.00014598,"INCLINATION":53.0532,"RA_OF_ASC_NODE":267.8285,"ARG_OF_PERICENTER":90.3692,"MEAN_ANOMALY":269.7464,"EPHEMERIS_TYPE":0,"CLASSIFICATION_TYPE":"U","NORAD_CAT_ID":47805,"ELEMENT_SET_NO":999,"REV_AT_EPOCH":25149,"BSTAR":0.00026383431,"MEAN_MOTION_DOT":3.652e-5,"MEAN_MOTION_DDOT":0},{"OBJECT_NAME":"STARLINK-2387","OBJECT_ID":"2021-018V","EPOCH":"2025-09-22T05:31:01.708896","MEAN_MOTION":15.0640187,"ECCENTRICITY":0.00012714,"INCLINATION":53.0548,"RA_OF_ASC_NODE":282.8759,"ARG_OF_PERICENTER":92.8155,"MEAN_ANOMALY":267.2979,"EPHEMERIS_TYPE":0,"CLASSIFICATION_TYPE":"U","NORAD_CAT_ID":47806,"ELEMENT_SET_NO":999,"REV_AT_EPOCH":25133,"BSTAR":0.00010554118,"MEAN_MOTION_DOT":1.291e-5,"MEAN_MOTION_DDOT":0},{"OBJECT_NAME":"STARLINK-2388","OBJECT_ID":"2021-018W","EPOCH":"2025-09-22T05:15:45.088704","MEAN_MOTION":15.06407588,"ECCENTRICITY":0.00015918,"INCLINATION":53.0538,"RA_OF_ASC_NODE":257.9156,"ARG_OF_PERICENTER":80.3889,"MEAN_ANOMALY":279.728,"EPHEMERIS_TYPE":0,"CLASSIFICATION_TYPE":"U","NORAD_CAT_ID":47807,"ELEMENT_SET_NO":999,"REV_AT_EPOCH":25161,"BSTAR":0.00013159654,"MEAN_MOTION_DOT":1.679e-5,"MEAN_MOTION_DDOT":0},{"OBJECT_NAME":"STARLINK-2389","OBJECT_ID":"2021-018X","EPOCH":"2025-09-22T05:57:33.514848","MEAN_MOTION":15.06409133,"ECCENTRICITY":0.00013794,"INCLINATION":53.0536,"RA_OF_ASC_NODE":282.7793,"ARG_OF_PERICENTER":90.6314,"MEAN_ANOMALY":269.4833,"EPHEMERIS_TYPE":0,"CLASSIFICATION_TYPE":"U","NORAD_CAT_ID":47808,"ELEMENT_SET_NO":999,"REV_AT_EPOCH":25133,"BSTAR":0.00023378756,"MEAN_MOTION_DOT":3.203e-5,"MEAN_MOTION_DDOT":0},{"OBJECT_NAME":"STARLINK-2391","OBJECT_ID":"2021-018Z","EPOCH":"2025-09-22T06:40:40.945152","MEAN_MOTION":15.06410535,"ECCENTRICITY":0.00013347,"INCLINATION":53.054,"RA_OF_ASC_NODE":297.6496,"ARG_OF_PERICENTER":93.1922,"MEAN_ANOMALY":266.9219,"EPHEMERIS_TYPE":0,"CLASSIFICATION_TYPE":"U","NORAD_CAT_ID":47810,"ELEMENT_SET_NO":999,"REV_AT_EPOCH":25112,"BSTAR":0.00022287936,"MEAN_MOTION_DOT":3.041e-5,"MEAN_MOTION_DDOT":0},{"OBJECT_NAME":"STARLINK-2393","OBJECT_ID":"2021-018AB","EPOCH":"2025-09-22T06:56:35.381760","MEAN_MOTION":15.06417869,"ECCENTRICITY":0.00012748,"INCLINATION":53.0548,"RA_OF_ASC_NODE":297.5975,"ARG_OF_PERICENTER":88.192,"MEAN_ANOMALY":271.9215,"EPHEMERIS_TYPE":0,"CLASSIFICATION_TYPE":"U","NORAD_CAT_ID":47812,"ELEMENT_SET_NO":999,"REV_AT_EPOCH":25106,"BSTAR":0.00021960728,"MEAN_MOTION_DOT":2.993e-5,"MEAN_MOTION_DDOT":0},{"OBJECT_NAME":"STARLINK-2395","OBJECT_ID":"2021-018AD","EPOCH":"2025-09-22T05:33:02.027808","MEAN_MOTION":15.06400823,"ECCENTRICITY":0.00013417,"INCLINATION":53.0538,"RA_OF_ASC_NODE":287.861,"ARG_OF_PERICENTER":91.0278,"MEAN_ANOMALY":269.0865,"EPHEMERIS_TYPE":0,"CLASSIFICATION_TYPE":"U","NORAD_CAT_ID":47814,"ELEMENT_SET_NO":999,"REV_AT_EPOCH":25126,"BSTAR":0.00019043711,"MEAN_MOTION_DOT":2.556e-5,"MEAN_MOTION_DDOT":0},{"OBJECT_NAME":"STARLINK-2396","OBJECT_ID":"2021-018AE","EPOCH":"2025-09-22T06:18:47.284992","MEAN_MOTION":15.06399535,"ECCENTRICITY":0.00019627,"INCLINATION":53.0535,"RA_OF_ASC_NODE":282.718,"ARG_OF_PERICENTER":29.1813,"MEAN_ANOMALY":330.9285,"EPHEMERIS_TYPE":0,"CLASSIFICATION_TYPE":"U","NORAD_CAT_ID":47815,"ELEMENT_SET_NO":999,"REV_AT_EPOCH":25127,"BSTAR":-9.27455e-6,"MEAN_MOTION_DOT":-4.2e-6,"MEAN_MOTION_DDOT":0},{"OBJECT_NAME":"STARLINK-2399","OBJECT_ID":"2021-018AF","EPOCH":"2025-09-22T06:31:23.543328","MEAN_MOTION":15.06411852,"ECCENTRICITY":0.00010563,"INCLINATION":53.0551,"RA_OF_ASC_NODE":287.6741,"ARG_OF_PERICENTER":89.4669,"MEAN_ANOMALY":270.6441,"EPHEMERIS_TYPE":0,"CLASSIFICATION_TYPE":"U","NORAD_CAT_ID":47816,"ELEMENT_SET_NO":999,"REV_AT_EPOCH":25120,"BSTAR":0.00010876851,"MEAN_MOTION_DOT":1.34e-5,"MEAN_MOTION_DDOT":0},{"OBJECT_NAME":"STARLINK-2400","OBJECT_ID":"2021-018AG","EPOCH":"2025-09-22T06:57:55.681056","MEAN_MOTION":15.06410106,"ECCENTRICITY":0.00013178,"INCLINATION":53.0545,"RA_OF_ASC_NODE":287.5941,"ARG_OF_PERICENTER":90.3192,"MEAN_ANOMALY":269.7948,"EPHEMERIS_TYPE":0,"CLASSIFICATION_TYPE":"U","NORAD_CAT_ID":47817,"ELEMENT_SET_NO":999,"REV_AT_EPOCH":25120,"BSTAR":0.0001192111,"MEAN_MOTION_DOT":1.495e-5,"MEAN_MOTION_DDOT":0}]
