STARLINK-2377           
1 47797U 21018L   25265.24001598  .00004865  00000+0  34518-3 0  9991
2 47797  53.0537 292.8202 0001210  81.6226 278.4901 15.06412180251134
STARLINK-2379           
1 47798U 21018M   25265.28101622  .00000694  00000+0  65466-4 0  9998
2 47798  53.0531 267.6355 0001317  95.1897 264.9242 15.06401659251496
STARLINK-2380           
1 47799U 21018N   25265.27733108  .00001844  00000+0  14265-3 0  9996
2 47799  53.0544 267.6494 0001294  86.9575 273.1562 15.06408014251488
STARLINK-2381           
1 47800U 21018P   25265.29944855 -.00000123  00000+0  10632-4 0  9999
2 47800  53.0538 267.5553 0001292  85.9741 274.1396 15.06399900251491
STARLINK-2383           
1 47802U 21018R   25265.24737765  .00001776  00000+0  13808-3 0  9997
2 47802  53.0542 292.7860 0001280  89.0384 271.0751 15.06405850251149
STARLINK-2385           
1 47804U 21018T   25265.25889839  .00000971  00000+0  84076-4 0  9992
2 47804  53.0537 267.7323 0001436 103.8493 256.2656 15.06408181251486
STARLINK-2386           
1 47805U 21018U   25265.29210650  .00003652  00000+0  26383-3 0  9991
2 47805  53.0532 267.8285 0001459  90.3692 269.7464 15.06413315251498
STARLINK-2387           
1 47806U 21018V   25265.22988089  .00001291  00000+0  10554-3 0  9993
2 47806  53.0548 282.8759 0001271  92.8155 267.2979 15.06401870251332
STARLINK-2388           
1 47807U 21018W   25265.21927186  .00001679  00000+0  13160-3 0  9990
2 47807  53.0538 257.9156 0001591  80.3889 279.7280 15.06407588251613
STARLINK-2389           
1 47808U 21018X   25265.24830457  .00003203  00000+0  23379-3 0  9996
2 47808  53.0536 282.7793 0001379  90.6314 269.4833 15.06409133251333
STARLINK-2391           
1 47810U 21018Z   25265.27825168  .00003041  00000+0  22288-3 0  9993
2 47810  53.0540 297.6496 0001334  93.1922 266.9219 15.06410535251125
STARLINK-2393           
1 47812U 21018AB  25265.28929840  .00002993  00000+0  21961-3 0  9990
2 47812  53.0548 297.5975 0001274  88.1920 271.9215 15.06417869251063
STARLINK-2395           
1 47814U 21018AD  25265.23127347  .00002556  00000+0  19044-3 0  9993
2 47814  53.0538 287.8610 0001341  91.0278 269.0865 15.06400823251269
STARLINK-2396           
1 47815U 21018AE  25265.26304728 -.00000420  00000+0 -92746-5 0  9999
2 47815  53.0535 282.7180 0001962  29.1813 330.9285 15.06399535251271
STARLINK-2399           
1 47816U 21018AF  25265.27180027  .00001340  00000+0  10877-3 0  9998
2 47816  53.0551 287.6741 0001056  89.4669 270.6441 15.06411852251203
STARLINK-2400           
1 47817U 21018AG  25265.29022779  .00001495  00000+0  11921-3 0  9992
2 47817  53.0545 287.5941 0001317  90.3192 269.7948 15.06410106251202
